{"type": "FeatureCollection", "features": [ {"type": "Feature", "properties": {"norad_id": 66798, "name": "STARLINK-36041", "group": "last-30-days", "lat": 2.3986692947022012, "lon": 50.785199552451914, "alt_km": 333.84016178736147, "timestamp": "2025-12-15T19:00:44.078072+00:00", "meta": {"OBJECT_NAME": "STARLINK-36041", "OBJECT_ID": "2025-278H", "EPOCH": "2025-12-14T20:00:06.000192", "MEAN_MOTION": 15.8137676, "ECCENTRICITY": 0.00016122, "INCLINATION": 42.997, "RA_OF_ASC_NODE": 239.2229, "ARG_OF_PERICENTER": 270.9782, "MEAN_ANOMALY": 205.2064, "EPHEMERIS_TYPE": 0, "CLASSIFICATION_TYPE": "U", "NORAD_CAT_ID": 66798, "ELEMENT_SET_NO": 999, "REV_AT_EPOCH": 313, "BSTAR": -0.0072925634, "MEAN_MOTION_DOT": -0.01309993, "MEAN_MOTION_DDOT": 0}, "tle": {"line1": "1 66798U 25278H   25348.83340278 -.01309993  00000+0 -72926-2 0  9990", "line2": "2 66798  42.9970 239.2229 0001612 270.9782 205.2064 15.81376760  3133"}}, "geometry": {"type": "Point", "coordinates": [50.785199552451914, 2.3986692947022012]}}, {"type": "Feature", "properties": {"norad_id": 66799, "name": "STARLINK-36044", "group": "last-30-days", "lat": 0.9115788145101492, "lon": 52.378136306151724, "alt_km": 334.0030284619834, "timestamp": "2025-12-15T19:00:44.078082+00:00", "meta": {"OBJECT_NAME": "STARLINK-36044", "OBJECT_ID": "2025-278J", "EPOCH": "2025-12-14T20:00:06.000192", "MEAN_MOTION": 15.81350782, "ECCENTRICITY": 0.00015576, "INCLINATION": 42.9969, "RA_OF_ASC_NODE": 239.2173, "ARG_OF_PERICENTER": 268.9927, "MEAN_ANOMALY": 209.4765, "EPHEMERIS_TYPE": 0, "CLASSIFICATION_TYPE": "U", "NORAD_CAT_ID": 66799, "ELEMENT_SET_NO": 999, "REV_AT_EPOCH": 329, "BSTAR": -0.0073220173, "MEAN_MOTION_DOT": -0.01313187, "MEAN_MOTION_DDOT": 0}, "tle": {"line1": "1 66799U 25278J   25348.83340278 -.01313187  00000+0 -73220-2 0  9999", "line2": "2 66799  42.9969 239.2173 0001557 268.9927 209.4765 15.81350782  3293"}}, "geometry": {"type": "Point", "coordinates": [52.378136306151724, 0.9115788145101492]}}, {"type": "Feature", "properties": {"norad_id": 66800, "name": "STARLINK-35996", "group": "last-30-days", "lat": -2.041984902376115, "lon": 55.538384290199986, "alt_km": 334.6271213520431, "timestamp": "2025-12-15T19:00:44.078092+00:00", "meta": {"OBJECT_NAME": "STARLINK-35996", "OBJECT_ID": "2025-278K", "EPOCH": "2025-12-14T20:00:06.000192", "MEAN_MOTION": 15.81294407, "ECCENTRICITY": 0.00015994, "INCLINATION": 42.9969, "RA_OF_ASC_NODE": 239.2054, "ARG_OF_PERICENTER": 273.1661, "MEAN_ANOMALY": 209.865, "EPHEMERIS_TYPE": 0, "CLASSIFICATION_TYPE": "U", "NORAD_CAT_ID": 66800, "ELEMENT_SET_NO": 999, "REV_AT_EPOCH": 308, "BSTAR": -0.007394313, "MEAN_MOTION_DOT": -0.01321493, "MEAN_MOTION_DDOT": 0}, "tle": {"line1": "1 66800U 25278K   25348.83340278 -.01321493  00000+0 -73943-2 0  9993", "line2": "2 66800  42.9969 239.2054 0001599 273.1661 209.8650 15.81294407  3088"}}, "geometry": {"type": "Point", "coordinates": [55.538384290199986, -2.041984902376115]}}, {"type": "Feature", "properties": {"norad_id": 66801, "name": "STARLINK-36080", "group": "last-30-days", "lat": -9.336692821550631, "lon": 63.48129396402889, "alt_km": 335.76699603349334, "timestamp": "2025-12-15T19:00:44.078103+00:00", "meta": {"OBJECT_NAME": "STARLINK-36080", "OBJECT_ID": "2025-278L", "EPOCH": "2025-12-14T20:00:06.000192", "MEAN_MOTION": 15.81168748, "ECCENTRICITY": 0.00015125, "INCLINATION": 42.9968, "RA_OF_ASC_NODE": 239.1762, "ARG_OF_PERICENTER": 272.6018, "MEAN_ANOMALY": 221.7785, "EPHEMERIS_TYPE": 0, "CLASSIFICATION_TYPE": "U", "NORAD_CAT_ID": 66801, "ELEMENT_SET_NO": 999, "REV_AT_EPOCH": 329, "BSTAR": -0.0076674261, "MEAN_MOTION_DOT": -0.01383287, "MEAN_MOTION_DDOT": 0}, "tle": {"line1": "1 66801U 25278L   25348.83340278 -.01383287  00000+0 -76674-2 0  9997", "line2": "2 66801  42.9968 239.1762 0001512 272.6018 221.7785 15.81168748  3291"}}, "geometry": {"type": "Point", "coordinates": [63.48129396402889, -9.336692821550631]}}, {"type": "Feature", "properties": {"norad_id": 66802, "name": "STARLINK-35604", "group": "last-30-days", "lat": -0.5116277094791469, "lon": 53.900244394702675, "alt_km": 334.1280942596304, "timestamp": "2025-12-15T19:00:44.078116+00:00", "meta": {"OBJECT_NAME": "STARLINK-35604", "OBJECT_ID": "2025-278M", "EPOCH": "2025-12-14T20:00:06.000192", "MEAN_MOTION": 15.81334229, "ECCENTRICITY": 0.00015376, "INCLINATION": 42.9969, "RA_OF_ASC_NODE": 239.2116, "ARG_OF_PERICENTER": 266.9811, "MEAN_ANOMALY": 213.6419, "EPHEMERIS_TYPE": 0, "CLASSIFICATION_TYPE": "U", "NORAD_CAT_ID": 66802, "ELEMENT_SET_NO": 999, "REV_AT_EPOCH": 329, "BSTAR": -0.0073421498, "MEAN_MOTION_DOT": -0.01315439, "MEAN_MOTION_DDOT": 0}, "tle": {"line1": "1 66802U 25278M   25348.83340278 -.01315439  00000+0 -73421-2 0  9999", "line2": "2 66802  42.9969 239.2116 0001537 266.9811 213.6419 15.81334229  3294"}}, "geometry": {"type": "Point", "coordinates": [53.900244394702675, -0.5116277094791469]}}, {"type": "Feature", "properties": {"norad_id": 66803, "name": "STARLINK-35565", "group": "last-30-days", "lat": -3.4541565110606975, "lon": 57.05456511732378, "alt_km": 334.90045495933373, "timestamp": "2025-12-15T19:00:44.078127+00:00", "meta": {"OBJECT_NAME": "STARLINK-35565", "OBJECT_ID": "2025-278N", "EPOCH": "2025-12-14T20:00:06.000192", "MEAN_MOTION": 15.81282996, "ECCENTRICITY": 0.00015422, "INCLINATION": 42.9969, "RA_OF_ASC_NODE": 239.2001, "ARG_OF_PERICENTER": 275.0961, "MEAN_ANOMALY": 210.0862, "EPHEMERIS_TYPE": 0, "CLASSIFICATION_TYPE": "U", "NORAD_CAT_ID": 66803, "ELEMENT_SET_NO": 999, "REV_AT_EPOCH": 338, "BSTAR": -0.0074593636, "MEAN_MOTION_DOT": -0.01330995, "MEAN_MOTION_DDOT": 0}, "tle": {"line1": "1 66803U 25278N   25348.83340278 -.01330995  00000+0 -74594-2 0  9996", "line2": "2 66803  42.9969 239.2001 0001542 275.0961 210.0862 15.81282996  3387"}}, "geometry": {"type": "Point", "coordinates": [57.05456511732378, -3.4541565110606975]}}, {"type": "Feature", "properties": {"norad_id": 66804, "name": "STARLINK-36038", "group": "last-30-days", "lat": -5.002209445738265, "lon": 58.724911242871066, "alt_km": 334.9714056293042, "timestamp": "2025-12-15T19:00:44.078137+00:00", "meta": {"OBJECT_NAME": "STARLINK-36038", "OBJECT_ID": "2025-278P", "EPOCH": "2025-12-14T20:00:06.000192", "MEAN_MOTION": 15.81238965, "ECCENTRICITY": 0.00015521, "INCLINATION": 42.9972, "RA_OF_ASC_NODE": 239.194, "ARG_OF_PERICENTER": 268.22, "MEAN_ANOMALY": 219.423, "EPHEMERIS_TYPE": 0, "CLASSIFICATION_TYPE": "U", "NORAD_CAT_ID": 66804, "ELEMENT_SET_NO": 999, "REV_AT_EPOCH": 329, "BSTAR": -0.0075223619, "MEAN_MOTION_DOT": -0.01363938, "MEAN_MOTION_DDOT": 0}, "tle": {"line1": "1 66804U 25278P   25348.83340278 -.01363938  00000+0 -75224-2 0  9991", "line2": "2 66804  42.9972 239.1940 0001552 268.2200 219.4230 15.81238965  3293"}}, "geometry": {"type": "Point", "coordinates": [58.724911242871066, -5.002209445738265]}}, {"type": "Feature", "properties": {"norad_id": 66805, "name": "STARLINK-36049", "group": "last-30-days", "lat": -7.887468210187233, "lon": 61.8744939062367, "alt_km": 335.72584769817786, "timestamp": "2025-12-15T19:00:44.078147+00:00", "meta": {"OBJECT_NAME": "STARLINK-36049", "OBJECT_ID": "2025-278Q", "EPOCH": "2025-12-14T20:00:06.000192", "MEAN_MOTION": 15.81195443, "ECCENTRICITY": 0.0001521, "INCLINATION": 42.9969, "RA_OF_ASC_NODE": 239.1824, "ARG_OF_PERICENTER": 277.7314, "MEAN_ANOMALY": 214.3824, "EPHEMERIS_TYPE": 0, "CLASSIFICATION_TYPE": "U", "NORAD_CAT_ID": 66805, "ELEMENT_SET_NO": 999, "REV_AT_EPOCH": 329, "BSTAR": -0.0076270776, "MEAN_MOTION_DOT": -0.01378338, "MEAN_MOTION_DDOT": 0}, "tle": {"line1": "1 66805U 25278Q   25348.83340278 -.01378338  00000+0 -76271-2 0  9995", "line2": "2 66805  42.9969 239.1824 0001521 277.7314 214.3824 15.81195443  3294"}}, "geometry": {"type": "Point", "coordinates": [61.8744939062367, -7.887468210187233]}}, {"type": "Feature", "properties": {"norad_id": 66806, "name": "STARLINK-36069", "group": "last-30-days", "lat": -6.377166360854233, "lon": 60.21877775739073, "alt_km": 335.387564826563, "timestamp": "2025-12-15T19:00:44.078157+00:00", "meta": {"OBJECT_NAME": "STARLINK-36069", "OBJECT_ID": "2025-278R", "EPOCH": "2025-12-14T20:00:06.000192", "MEAN_MOTION": 15.81234627, "ECCENTRICITY": 0.00014651, "INCLINATION": 42.9971, "RA_OF_ASC_NODE": 239.1887, "ARG_OF_PERICENTER": 275.9925, "MEAN_ANOMALY": 213.7171, "EPHEMERIS_TYPE": 0, "CLASSIFICATION_TYPE": "U", "NORAD_CAT_ID": 66806, "ELEMENT_SET_NO": 999, "REV_AT_EPOCH": 308, "BSTAR": -0.0075623381, "MEAN_MOTION_DOT": -0.01370105, "MEAN_MOTION_DDOT": 0}, "tle": {"line1": "1 66806U 25278R   25348.83340278 -.01370105  00000+0 -75623-2 0  9990", "line2": "2 66806  42.9971 239.1887 0001465 275.9925 213.7171 15.81234627  3085"}}, "geometry": {"type": "Point", "coordinates": [60.21877775739073, -6.377166360854233]}}, {"type": "Feature", "properties": {"norad_id": 66807, "name": "STARLINK-36000", "group": "last-30-days", "lat": -10.768913206576812, "lon": 65.09178596489589, "alt_km": 335.99703637654966, "timestamp": "2025-12-15T19:00:44.078167+00:00", "meta": {"OBJECT_NAME": "STARLINK-36000", "OBJECT_ID": "2025-278S", "EPOCH": "2025-12-14T20:00:06.000192", "MEAN_MOTION": 15.81143418, "ECCENTRICITY": 0.00015652, "INCLINATION": 42.997, "RA_OF_ASC_NODE": 239.1713, "ARG_OF_PERICENTER": 272.7353, "MEAN_ANOMALY": 223.9104, "EPHEMERIS_TYPE": 0, "CLASSIFICATION_TYPE": "U", "NORAD_CAT_ID": 66807, "ELEMENT_SET_NO": 999, "REV_AT_EPOCH": 335, "BSTAR": -0.0077353003, "MEAN_MOTION_DOT": -0.01392751, "MEAN_MOTION_DDOT": 0}, "tle": {"line1": "1 66807U 25278S   25348.83340278 -.01392751  00000+0 -77353-2 0  9994", "line2": "2 66807  42.9970 239.1713 0001565 272.7353 223.9104 15.81143418  3350"}}, "geometry": {"type": "Point", "coordinates": [65.09178596489589, -10.768913206576812]}}]}